GLOBALSTAR M067         
1 32263U 07048A   25165.90541390 -.00000045  00000+0  38646-3 0  9994
2 32263  51.9746  42.6085 0001310  15.4248 357.5817 12.40673439809208
GLOBALSTAR M070         
1 32264U 07048B   25165.37973424 -.00000111  00000+0 -37580-4 0  9995
2 32264  51.9729 137.0549 0000336  59.6142  73.8172 12.62319361813318
GLOBALSTAR M066         
1 32265U 07048C   25165.93812831 -.00000096  00000+0 -12043-4 0  9991
2 32265  51.9623  32.0543 0001417 291.9152  81.5024 12.30152190815025
GLOBALSTAR M068         
1 32266U 07048D   25165.70658446 -.00000064  00000+0  21994-3 0  9995
2 32266  51.9897 309.8190 0001778 121.2759 341.8756 12.62824912817243
GLOBALSTAR M079         
1 37188U 10054A   25165.34513691 -.00000116  00000+0 -68924-4 0  9990
2 37188  52.0013 148.4362 0000317 327.3313 180.2064 12.62265021676097
GLOBALSTAR M074         
1 37189U 10054B   25165.69354323 -.00000125  00000+0 -11944-3 0  9993
2 37189  51.9990 146.6997 0000378  15.5848 154.7640 12.62256935676742
GLOBALSTAR M076         
1 37190U 10054C   25165.92514855 -.00000109  00000+0 -27272-4 0  9993
2 37190  52.0011 146.1645 0000447 355.6927  28.2261 12.62263334676495
GLOBALSTAR M077         
1 37191U 10054D   25165.30899981 -.00000106  00000+0 -10557-4 0  9997
2 37191  52.0065 104.8957 0000513  39.7730 122.8261 12.62268298676785
